#cP2021 10  5  0  0  0.00000000      96 ORBIT IGb14 HLM  IGS
## 2178 172800.00000000   900.00000000 59492 0.0000000000000
+   32   G01G02G03G04G05G06G07G08G09G10G11G12G13G14G15G16G17
+        G18G19G20G21G22G23G24G25G26G27G28G29G30G31G32  0  0
+          0  0  0  0  0  0  0  0  0  0  0  0  0  0  0  0  0
+          0  0  0  0  0  0  0  0  0  0  0  0  0  0  0  0  0
+          0  0  0  0  0  0  0  0  0  0  0  0  0  0  0  0  0
++         2  2  2  2  1  2  2  2  2  2  3  1  2  2  2  2  2
++         2  2  2  2  1  2  2  1  1  2  2  2  2  2  2  0  0
++         0  0  0  0  0  0  0  0  0  0  0  0  0  0  0  0  0
++         0  0  0  0  0  0  0  0  0  0  0  0  0  0  0  0  0
++         0  0  0  0  0  0  0  0  0  0  0  0  0  0  0  0  0
%c G  cc GPS ccc cccc cccc cccc cccc ccccc ccccc ccccc ccccc
%c cc cc ccc ccc cccc cccc cccc cccc ccccc ccccc ccccc ccccc
%f  1.2500000  1.025000000  0.00000000000  0.000000000000000
%f  0.0000000  0.000000000  0.00000000000  0.000000000000000
%i    0    0    0    0      0      0      0      0         0
%i    0    0    0    0      0      0      0      0         0
/* FINAL ORBIT COMBINATION FROM WEIGHTED AVERAGE OF:        
/* cod emr esa gfz grg jpl mit ngs sio                      
/* REFERENCED TO IGS TIME (IGST) AND TO WEIGHTED MEAN POLE: 
/* PCV:IGS14_2178 OL/AL:FES2004  NONE     Y  ORB:CMB CLK:CMB
*  2021 10  5 10 30  0.00000000
PG01  21097.641153  12415.323226  10441.133743    548.125794  6  4  2  87       
PG02 -11877.856107 -21194.012603  11290.496827   -635.901587  6  3  3  98       
PG03  14166.880589   4829.837678  21838.579253   -313.642848  6  2  4  57       
PG04  24764.025508   1655.410945   9555.861812   -203.964890  7  6  3  67       
PG05  -8125.314736 -18319.590391 -17516.254729    -56.643780  4       100       
PG06    735.701239 -18018.845548  19539.498701     88.085076  5  6  3  94       
PG07  17468.733495  -1928.708878 -19684.658758    257.252044  7  6  2  86       
PG08  17653.538217   8320.682257 -18169.734576    -38.968373  6  5  4  93       
PG09  25378.461960  -7758.836623  -1469.535433   -361.638173  6  4  4 101       
PG10 -11656.410403  22534.524529  -7223.569839   -217.406975  5  2  3  61       
PG11  -9273.901472 -22455.849481  10738.286534     20.725078  7  3  5  92       
PG12 -13270.094648  -6867.310888  21714.377003   -107.110226  5  4     92       
PG13  -9883.422967 -13378.014054 -20888.151139    195.145178  6  6  4  92       
PG14  12758.613113 -22173.146836  -7037.215366    -12.715417  5  5  2  84       
PG15 -18947.561878  -7051.791315 -17782.518156   -116.203967  5  5  2  95       
PG16   2902.520950  21392.709160 -15405.051330   -401.937617  6  2  5  89       
PG17  18499.747207 -13065.550123  14318.404225    514.693051  8  4  4  88       
PG18 -15982.814218   3790.386985 -20901.455736    314.216261  5  7  4  52       
PG19  10416.347506 -14490.971128  19346.828052     61.825290  6  2  2  82       
PG20  -2285.475941 -25455.094697  -7739.331691    518.795888  6     5  78       
PG21  21350.302161  16098.200966   3231.926373    146.124250  6  3  5  99       
PG22  12404.160106  13063.348764  19751.153849   -496.749660  4  2  5  73       
PG23 -15511.968542  13664.271219 -16656.993794     48.947744  4  3  4  58       
PG24 -21902.139651 -14282.259725   5503.957150    248.223855  7  7  5 113       
PG25 -16145.626723   4884.720564  20187.574697    219.414735  3  3  1  98       
PG26  -4043.643002  25936.211230  -2911.397030    141.588825  4  5  3  82       
PG27   7322.083118  13491.766288 -21891.297320   -202.140186  6  5  6  95       
PG28   9478.860935 -24928.190039    558.795807    488.360035  5  4  4  87       
PG29 -26332.424968   3418.825667   1453.655876   -421.735796  6  5  3 101       
PG30   9169.388989 -13024.425206 -21162.379247   -479.472016  4  5  4  62       
PG31    433.251917  19288.331376  17943.224264   -143.334922  4  6  2  53       
PG32 -14637.537613  15312.319401  16027.293753     -6.991437  1  4  5  82       
*  2021 10  5 10 45  0.00000000
PG01  21746.954919  13276.338281   7814.265491    548.116178  6  3  3  71       
PG02 -10731.257242 -20480.448823  13653.873388   -635.903166  6  3  3  90       
PG03  13528.271434   7250.597965  21582.705600   -313.655332  6  1  5  66       
PG04  23617.278498   2156.920886  12031.764102   -203.964653  7  5  3  65       
PG05  -7557.678015 -20117.551984 -15669.746332    -56.644794  4        72       
PG06   2421.491848 -16469.584556  20742.209215     88.092303  5  6  2  87       
PG07  18978.211434   -271.037142 -18405.150263    257.257843  7  5  2  88       
PG08  15626.388390   9037.584609 -19599.517833    -38.970250  6  5  5  85       
PG09  25454.782384  -7496.516819   1371.030110   -361.638392  6  4  4  73       
PG10 -11636.322089  21507.771909  -9882.842985   -217.414235  5  2  3  59       
PG11  -8196.579979 -21588.633413  13124.059873     20.725793  7  5  5  85       
PG12 -12448.018360  -9241.840188  21333.116280   -107.115213  5  5     90       
PG13  -7518.239182 -13761.101219 -21603.835550    195.150360  7  5  4  86       
PG14  12725.541667 -21182.611377  -9663.807880    -12.722436  5  5  2 101       
PG15 -17116.872707  -7971.817935 -19194.386154   -116.201281  5  5  2  95       
PG16   2181.924676  22848.771194 -13203.609480   -401.943501  6  2  5  66       
PG17  19936.174298 -13223.238866  11985.150753    514.697681  8  3  4 102       
PG18 -17554.502253   2074.336990 -19863.161046    314.211956  5  6  4  78       
PG19  12584.366571 -14733.067283  17822.413896     61.829744  6  3  2  85       
PG20  -1932.400484 -26149.752434  -5069.474248    518.795438  6     5  62       
PG21  21311.836459  16348.560827    422.121994    146.125839  5  2  5 105       
PG22  11955.328189  15177.271094  18482.594944   -496.741384  4  2  5  58       
PG23 -15211.397758  11680.165322 -18365.420244     48.943512  4  3  4  76       
PG24 -22094.637973 -14828.407657   2776.341932    248.229992  6  6  5 102       
PG25 -15640.749991   2518.640987  21015.864458    219.420338  3  4     91       
PG26  -4406.912703  26032.266214    -88.188958    141.592468  4  4  2  42       
PG27   4941.757334  14159.103134 -22104.856930   -202.144761  6  5  6  74       
PG28   9626.261169 -24706.823253  -2302.883616    488.353350  5  4  4  92       
PG29 -26041.388901   3171.603055   4324.700919   -421.741030  6  5  3 101       
PG30  10909.242609 -11289.292894 -21353.624506   -479.475246  3  5  4  77       
PG31  -1195.191633  17844.015613  19381.066667   -143.337026  3  5  2  74       
PG32 -16330.709607  15592.187426  13958.797605     -6.994879     4  5  83       
*  2021 10  5 11  0  0.00000000
PG01  22216.089009  13894.519284   5054.232647    548.106467  6  3  4  79       
PG02  -9352.281642 -19679.445472  15789.869614   -635.904900  6  4  2  74       
PG03  13029.672081   9651.311653  20952.256925   -313.667858  6  1  4  76       
PG04  22241.684077   2796.457535  14301.359562   -203.964356  6  4  2  60       
PG05  -7116.574112 -21723.130022 -13554.688938    -56.645925  4        66       
PG06   4278.415463 -14941.416111  21589.446518     88.099388  4  6  3  96       
PG07  20443.147557   1194.762226 -16804.519289    257.263735  7  4  2  53       
PG08  13504.423735   9911.838630 -20695.265750    -38.971043  5  5  6  87       
PG09  25243.918187  -7128.579346   4188.019729   -361.638566  6  4  3  71       
PG10 -11615.476968  20192.408296 -12368.431446   -217.421452  5  3  3  73       
PG11  -6891.261893 -20598.934142  15283.991320     20.726584  8  6  6  87       
PG12 -11770.944963 -11592.027540  20576.876783   -107.119891  4  5     75       
PG13  -5117.321862 -14283.122741 -21953.372071    195.155168  7  5  4  77       
PG14  12675.908363 -19911.653982 -12123.580335    -12.729405  5  5  2  57       
PG15 -15207.407565  -9040.106732 -20289.171725   -116.198797  5  5  3  93       
PG16   1610.129054  24090.738665 -10772.887015   -401.949098  6  3  5  76       
PG17  21101.277881 -13385.940590   9450.169590    514.702864  8  3  4  91       
PG18 -19114.081120    537.383506 -18484.200032    314.207649  6  6  5  73       
PG19  14547.193947 -15049.383168  15983.075263     61.834059  7  3  2  97       
PG20  -1627.295921 -26556.892084  -2313.785223    518.795197  6  1  5  86       
PG21  21031.107623  16417.877103  -2394.641128    146.127573  6  2  5  95       
PG22  11624.689655  17151.380256  16902.246971   -496.733344  4     5  79       
PG23 -14987.009043   9510.413351 -19757.586103     48.939242  4  3  5  69       
PG24 -22068.451868 -15177.396192      1.940047    248.236126  6  6  5  80       
PG25 -15243.352003     59.484279  21472.500200    219.425927  2  4     84       
PG26  -4718.939584  25828.030085   2736.558403    141.596113  4  3  2  49       
PG27   2595.404523  14958.195254 -21944.494960   -202.149306  6  5  6  82       
PG28   9699.154160 -24183.123824  -5125.117663    488.347068  5  5  4  99       
PG29 -25453.999623   2825.809417   7121.537014   -421.745697  6  5  4  90       
PG30  12729.271685  -9640.944735 -21175.088915   -479.478494  4  6  4  36       
PG31  -2998.390302  16387.936985  20478.234940   -143.338368  3  5  2  56       
PG32 -17775.202621  15876.240683  11649.685668     -6.998414     3  5  62       
EOF
